SL-16 R/B               
1 23405U 94077B   26200.06071378  .00000136  00000+0  94117-4 0  9998
2 23405  70.9821  76.1069 0004134 300.4816  59.5898 14.15574813634822
ARIANE 40+ R/B          
1 23561U 95021B   26200.23074927  .00000105  00000+0  47392-4 0  9992
2 23561  98.4398 269.8405 0007960 106.3747 322.4206 14.39848861638170
SL-16 R/B               
1 23705U 95058B   26200.21535179  .00000281  00000+0  16804-3 0  9999
2 23705  71.0207 264.1149 0014659 277.6280  82.3178 14.15511054586465
SL-16 R/B               
1 24298U 96051B   26200.18333772  .00000141  00000+0  10299-3 0  9999
2 24298  70.7642 256.9373 0018061 292.9372  66.9841 14.12458113540214
ORBVIEW 2 (SEASTAR)     
1 24883U 97037A   26200.08143293  .00000088  00000+0  46723-4 0  9992
2 24883  98.8719   7.9892 0002953  53.0011 307.1443 14.35567824527329
SL-16 R/B               
1 25400U 98043G   26200.28676832  .00000003  00000+0  20155-4 0  9996
2 25400  98.8380 154.7253 0009829 359.8439   0.2736 14.26073074457744
SL-16 R/B               
1 25407U 98045B   26200.23237865  .00000004  00000+0  26333-4 0  9994
2 25407  71.0103 264.9384 0007970 200.5718 159.5086 14.16204960445723
ISS (ZARYA)             
1 25544U 98067A   26200.18563955  .00004087  00000+0  82168-4 0  9999
2 25544  51.6318 141.7399 0006797 313.2287  46.8133 15.49047695576716
CZ-4B R/B               
1 25732U 99025C   26200.08938502  .00000006  00000+0  23700-4 0  9990
2 25732  98.6470 241.1225 0036440 328.3560  58.7960 14.18288104406794
OKEAN-O                 
1 25860U 99039A   26200.18081647  .00000237  00000+0  37708-4 0  9996
2 25860  97.9297 258.6085 0000883  96.8446 263.2866 14.80499866453848
SL-16 R/B               
1 25861U 99039B   26200.17292535  .00000194  00000+0  31349-4 0  9993
2 25861  97.9819 258.9418 0014650 185.2644 174.8417 14.81872932456338
DELTA 2 R/B             
1 25876U 99041E   26200.23923138  .00000823  00000+0  17141-3 0  9991
2 25876  51.7612 135.7368 0501464  16.6961 344.9829 14.12094681381618
HELIOS 1B               
1 25977U 99064A   26200.18636009  .00000576  00000+0  69035-4 0  9995
2 25977  98.1579 106.2486 0001735  50.3930 309.7439 14.88080508704811
TERRA                   
1 25994U 99068A   26200.27316722  .00000163  00000+0  42191-4 0  9991
2 25994  97.9438 248.5443 0003555 114.9038 309.9464 14.61125488414290
SL-16 R/B               
1 26070U 00006B   26200.21119843  .00000114  00000+0  82234-4 0  9998
2 26070  71.0004 181.2886 0017352 334.4290  25.5973 14.15838373367174
TITAN 4B R/B            
1 26474U 00047B   26200.24639176  .00001256  00000+0  83085-4 0  9993
2 26474  67.9873  30.3212 0045736 254.7143 104.8949 15.10344423412770
ENVISAT                 
1 27386U 02009A   26200.32182059  .00000025  00000+0  22123-4 0  9997
2 27386  98.3848 150.9266 0001317  82.7729  79.2939 14.39071253278106
IDEFIX & ARIANE 42P R/B 
1 27422U 02021B   26200.29133011  .00000082  00000+0  47837-4 0  9994
2 27422  98.5941 137.4275 0012155 154.5996 205.5787 14.31094764262842
AQUA                    
1 27424U 02022A   26200.29386193  .00000333  00000+0  76148-4 0  9994
2 27424  98.4299 170.2228 0001269 101.7289   3.0103 14.62131777287968
CZ-4B R/B               
1 27432U 02024C   26200.13257590 -.00000006  00000+0  19594-4 0  9996
2 27432  98.8682 252.7423 0050280  10.8470   8.9878 14.14568524247824
MIDORI II (ADEOS-II)    
1 27597U 02056A   26199.84860506  .00000093  00000+0  54464-4 0  9995
2 27597  98.7896 159.3810 0001332  36.4516 323.6755 14.29364028229036
H-2A R/B                
1 27601U 02056E   26200.17249638  .00000117  00000+0  55156-4 0  9993
2 27601  98.3330 155.6843 0071062 129.2164 242.5601 14.33835105232951
CZ-4B R/B               
1 28059U 03049C   26200.00000538  .00000114  00000+0  37853-4 0  9991
2 28059  98.6912 200.1153 0047895 189.5638 170.4651 14.55117506205697
CZ-2C R/B               
1 28222U 04012C   26200.22066781  .00101580  00000+0  40845-3 0  9993
2 28222  97.7044 279.7837 0010948 180.5748 179.5511 15.86074606224962
SL-16 R/B               
1 28353U 04021B   26200.26448458 -.00000126  00000+0 -40837-4 0  9995
2 28353  71.0029 316.3689 0006176 221.5871 138.4783 14.14616299141445
CZ-4B R/B               
1 28415U 04035C   26200.09647758  .00003712  00000+0  12486-3 0  9994
2 28415  97.3352 232.8171 0029551 218.1874 141.7274 15.31022020200002
CZ-2C R/B               
1 28480U 04046B   26200.23496460  .00000062  00000+0  37757-4 0  9990
2 28480  98.1911 107.0077 0140335 125.5099 235.9268 14.27034009127265
ARIANE 5 R/B            
1 28499U 04049H   26200.05849314  .00000257  00000+0  35270-4 0  9997
2 28499  98.2746  13.5483 0082515 285.5471  73.6645 14.85481247165295
CZ-2D R/B               
1 28738U 05024B   26200.05987552  .00042826  00000+0  31343-3 0  9998
2 28738  97.3472 221.1637 0003082 182.5627 177.5621 15.73090624160348
ALOS (DAICHI)           
1 28931U 06002A   26200.28492915  .00000497  00000+0  90908-4 0  9990
2 28931  98.1340 155.7567 0000914 106.1589 253.9717 14.70106494 92810
