OBJECT_NAME,OBJECT_ID,EPOCH,MEAN_MOTION,ECCENTRICITY,INCLINATION,RA_OF_ASC_NODE,ARG_OF_PERICENTER,MEAN_ANOMALY,EPHEMERIS_TYPE,CLASSIFICATION_TYPE,NORAD_CAT_ID,ELEMENT_SET_NO,REV_AT_EPOCH,BSTAR,MEAN_MOTION_DOT,MEAN_MOTION_DDOT
SL-16 R/B,1994-077B,2026-07-19T01:27:25.670592,14.15574813,.00041348,70.9821,76.1069,300.4816,59.5898,0,U,23405,999,63482,.94117413E-4,.136E-5,0
ARIANE 40+ R/B,1995-021B,2026-07-19T05:32:16.736928,14.39848861,.00079605,98.4398,269.8405,106.3747,322.4206,0,U,23561,999,63817,.47391983E-4,.105E-5,0
SL-16 R/B,1995-058B,2026-07-19T05:10:06.394656,14.15511054,.00146597,71.0207,264.1149,277.6280,82.3178,0,U,23705,999,58646,.16803868E-3,.281E-5,0
SL-16 R/B,1996-051B,2026-07-19T04:24:00.379008,14.12458113,.00180619,70.7642,256.9373,292.9372,66.9841,0,U,24298,999,54021,.10298609E-3,.141E-5,0
ORBVIEW 2 (SEASTAR),1997-037A,2026-07-19T01:57:15.805152,14.35567824,.0002953,98.8719,7.9892,53.0011,307.1443,0,U,24883,999,52732,.46722979E-4,.88E-6,0
SL-16 R/B,1998-043G,2026-07-19T06:52:56.782848,14.26073074,.00098298,98.8380,154.7253,359.8439,0.2736,0,U,25400,999,45774,.20155309E-4,.3E-7,0
SL-16 R/B,1998-045B,2026-07-19T05:34:37.515360,14.16204960,.00079709,71.0103,264.9384,200.5718,159.5086,0,U,25407,999,44572,.26333257E-4,.4E-7,0
ISS (ZARYA),1998-067A,2026-07-19T04:27:19.257120,15.49047695,.00067979,51.6318,141.7399,313.2287,46.8133,0,U,25544,999,57671,.82168399E-4,.4087E-4,0
CZ-4B R/B,1999-025C,2026-07-19T02:08:42.865728,14.18288104,.00364407,98.6470,241.1225,328.3560,58.7960,0,U,25732,999,40679,.23700419E-4,.6E-7,0
OKEAN-O,1999-039A,2026-07-19T04:20:22.543008,14.80499866,.00008832,97.9297,258.6085,96.8446,263.2866,0,U,25860,999,45384,.37708082E-4,.237E-5,0
SL-16 R/B,1999-039B,2026-07-19T04:09:00.750240,14.81872932,.00146505,97.9819,258.9418,185.2644,174.8417,0,U,25861,999,45633,.31349441E-4,.194E-5,0
DELTA 2 R/B,1999-041E,2026-07-19T05:44:29.591232,14.12094681,.05014646,51.7612,135.7368,16.6961,344.9829,0,U,25876,999,38161,.17141434E-3,.823E-5,0
HELIOS 1B,1999-064A,2026-07-19T04:28:21.511776,14.88080508,.00017355,98.1579,106.2486,50.3930,309.7439,0,U,25977,999,70481,.69035358E-4,.576E-5,0
TERRA,1999-068A,2026-07-19T06:33:21.647808,14.61125488,.00035558,97.9438,248.5443,114.9038,309.9464,0,U,25994,999,41429,.42191468E-4,.163E-5,0
SL-16 R/B,2000-006B,2026-07-19T05:04:07.544352,14.15838373,.00173524,71.0004,181.2886,334.4290,25.5973,0,U,26070,999,36717,.82233729E-4,.114E-5,0
TITAN 4B R/B,2000-047B,2026-07-19T05:54:48.248064,15.10344423,.00457361,67.9873,30.3212,254.7143,104.8949,0,U,26474,999,41277,.83084934E-4,.1256E-4,0
ENVISAT,2002-009A,2026-07-19T07:43:25.298976,14.39071253,.00013177,98.3848,150.9266,82.7729,79.2939,0,U,27386,999,27810,.22123042E-4,.25E-6,0
IDEFIX & ARIANE 42P R/B,2002-021B,2026-07-19T06:59:30.921504,14.31094764,.00121553,98.5941,137.4275,154.5996,205.5787,0,U,27422,999,26284,.47836625E-4,.82E-6,0
AQUA,2002-022A,2026-07-19T07:03:09.670752,14.62131777,.00012696,98.4299,170.2228,101.7289,3.0103,0,U,27424,999,28796,.76148058E-4,.333E-5,0
CZ-4B R/B,2002-024C,2026-07-19T03:10:54.557760,14.14568524,.00502802,98.8682,252.7423,10.8470,8.9878,0,U,27432,999,24782,.1959357E-4,-.6E-7,0
MIDORI II (ADEOS-II),2002-056A,2026-07-18T20:21:59.477184,14.29364028,.00013325,98.7896,159.3810,36.4516,323.6755,0,U,27597,999,22903,.54463833E-4,.93E-6,0
H-2A R/B,2002-056E,2026-07-19T04:08:23.687232,14.33835105,.00710626,98.3330,155.6843,129.2164,242.5601,0,U,27601,999,23295,.55155835E-4,.117E-5,0
CZ-4B R/B,2003-049C,2026-07-19T00:00:00.464832,14.55117506,.00478954,98.6912,200.1153,189.5638,170.4651,0,U,28059,999,20569,.37852879E-4,.114E-5,0
CZ-2C R/B,2004-012C,2026-07-19T05:17:45.698784,15.86074606,.00109484,97.7044,279.7837,180.5748,179.5511,0,U,28222,999,22496,.40844603E-3,.10158E-2,0
SL-16 R/B,2004-021B,2026-07-19T06:20:51.467712,14.14616299,.00061762,71.0029,316.3689,221.5871,138.4783,0,U,28353,999,14144,-.40836747E-4,-.126E-5,0
CZ-4B R/B,2004-035C,2026-07-19T02:18:55.662912,15.31022020,.00295516,97.3352,232.8171,218.1874,141.7274,0,U,28415,999,20000,.12485744E-3,.3712E-4,0
CZ-2C R/B,2004-046B,2026-07-19T05:38:20.941440,14.27034009,.01403352,98.1911,107.0077,125.5099,235.9268,0,U,28480,999,12726,.37756961E-4,.62E-6,0
ARIANE 5 R/B,2004-049H,2026-07-19T01:24:13.807296,14.85481247,.00825151,98.2746,13.5483,285.5471,73.6645,0,U,28499,999,16529,.35270123E-4,.257E-5,0
CZ-2D R/B,2005-024B,2026-07-19T01:26:13.244928,15.73090624,.00030826,97.3472,221.1637,182.5627,177.5621,0,U,28738,999,16034,.31343423E-3,.42826E-3,0
ALOS (DAICHI),2006-002A,2026-07-19T06:50:17.878560,14.70106494,.00009145,98.1340,155.7567,106.1589,253.9717,0,U,28931,999,9281,.90908463E-4,.497E-5,0
